[{"OBJECT_NAME":"HULIANWANG DIGUI-16","OBJECT_ID":"2025-030F","EPOCH":"2026-03-09T21:09:15.218496","MEAN_MOTION":13.2933874,"ECCENTRICITY":8.475e-5,"INCLINATION":50.0034,"RA_OF_ASC_NODE":231.7718,"ARG_OF_PERICENTER":168.3823,"MEAN_ANOMALY":191.7068,"EPHEMERIS_TYPE":0,"CLASSIFICATION_TYPE":"U","NORAD_CAT_ID":62976,"ELEMENT_SET_NO":999,"REV_AT_EPOCH":5265,"BSTAR":0.0001072585,"MEAN_MOTION_DOT":-7.4e-7,"MEAN_MOTION_DDOT":0},{"OBJECT_NAME":"COSMOS 839 DEB","OBJECT_ID":"1976-067AU","EPOCH":"2026-03-09T20:53:25.137312","MEAN_MOTION":12.42345993,"ECCENTRICITY":0.06512291,"INCLINATION":65.9553,"RA_OF_ASC_NODE":0.0011,"ARG_OF_PERICENTER":345.6926,"MEAN_ANOMALY":69.6284,"EPHEMERIS_TYPE":0,"CLASSIFICATION_TYPE":"U","NORAD_CAT_ID":10620,"ELEMENT_SET_NO":999,"REV_AT_EPOCH":24305,"BSTAR":0.0018412315,"MEAN_MOTION_DOT":4.79e-6,"MEAN_MOTION_DDOT":0}]
